{
    "links": {
        "self": "http://www.neowsapp.com/rest/v1/neo/3484043?api_key=iIulBulltgU6a56xZRHN4H3l9WmuAYTsLGpBGhQ2"
    },
    "id": "3484043",
    "neo_reference_id": "3484043",
    "name": "(2009 YU6)",
    "designation": "2009 YU6",
    "nasa_jpl_url": "http://ssd.jpl.nasa.gov/sbdb.cgi?sstr=3484043",
    "absolute_magnitude_h": 21.4,
    "estimated_diameter": {
        "kilometers": {
            "estimated_diameter_min": 0.1394938229,
            "estimated_diameter_max": 0.3119176705
        },
        "meters": {
            "estimated_diameter_min": 139.4938229344,
            "estimated_diameter_max": 311.9176705226
        },
        "miles": {
            "estimated_diameter_min": 0.0866774163,
            "estimated_diameter_max": 0.1938165949
        },
        "feet": {
            "estimated_diameter_min": 457.6569140361,
            "estimated_diameter_max": 1023.3519701574
        }
    },
    "is_potentially_hazardous_asteroid": false,
    "close_approach_data": [
        {
            "close_approach_date": "2009-10-19",
            "close_approach_date_full": "2009-Oct-19 12:54",
            "epoch_date_close_approach": 1255956840000,
            "relative_velocity": {
                "kilometers_per_second": "10.5633314701",
                "kilometers_per_hour": "38027.9932922192",
                "miles_per_hour": "23629.1161653792"
            },
            "miss_distance": {
                "astronomical": "0.2086995875",
                "lunar": "81.1841395375",
                "kilometers": "31221013.759878625",
                "miles": "19399838.367930025"
            },
            "orbiting_body": "Earth"
        }
    ],
    "orbital_data": {
        "orbit_id": "9",
        "orbit_determination_date": "2017-04-06 08:58:42",
        "first_observation_date": "2009-12-20",
        "last_observation_date": "2010-01-06",
        "data_arc_in_days": 17,
        "observations_used": 36,
        "orbit_uncertainty": "7",
        "minimum_orbit_intersection": ".0812361",
        "jupiter_tisserand_invariant": "3.163",
        "epoch_osculation": "2459000.5",
        "eccentricity": ".6303365536975241",
        "semi_major_axis": "2.452793508635075",
        "inclination": "12.16849710019679",
        "ascending_node_longitude": "91.67283281009487",
        "orbital_period": "1403.104149773115",
        "perihelion_distance": ".9067081014703836",
        "perihelion_argument": "295.0261212938946",
        "aphelion_distance": "3.998878915799767",
        "perihelion_time": "2459329.656943757143",
        "mean_anomaly": "275.5468966635636",
        "mean_motion": ".2565739685526643",
        "equinox": "J2000",
        "orbit_class": {
            "orbit_class_type": "APO",
            "orbit_class_description": "Near-Earth asteroid orbits which cross the Earth’s orbit similar to that of 1862 Apollo",
            "orbit_class_range": "a (semi-major axis) > 1.0 AU; q (perihelion) < 1.017 AU"
        }
    },
    "is_sentry_object": false
}